{
    "links": {
        "self": "http://www.neowsapp.com/rest/v1/neo/3711172?api_key=iIulBulltgU6a56xZRHN4H3l9WmuAYTsLGpBGhQ2"
    },
    "id": "3711172",
    "neo_reference_id": "3711172",
    "name": "(2015 DE54)",
    "designation": "2015 DE54",
    "nasa_jpl_url": "http://ssd.jpl.nasa.gov/sbdb.cgi?sstr=3711172",
    "absolute_magnitude_h": 24.4,
    "estimated_diameter": {
        "kilometers": {
            "estimated_diameter_min": 0.0350392641,
            "estimated_diameter_max": 0.0783501764
        },
        "meters": {
            "estimated_diameter_min": 35.0392641108,
            "estimated_diameter_max": 78.3501764334
        },
        "miles": {
            "estimated_diameter_min": 0.0217723826,
            "estimated_diameter_max": 0.0486845275
        },
        "feet": {
            "estimated_diameter_min": 114.9582192654,
            "estimated_diameter_max": 257.0543928497
        }
    },
    "is_potentially_hazardous_asteroid": false,
    "close_approach_data": [
        {
            "close_approach_date": "2015-02-10",
            "close_approach_date_full": "2015-Feb-10 21:30",
            "epoch_date_close_approach": 1423603800000,
            "relative_velocity": {
                "kilometers_per_second": "24.8906103206",
                "kilometers_per_hour": "89606.1971542698",
                "miles_per_hour": "55677.8062262184"
            },
            "miss_distance": {
                "astronomical": "0.0456136062",
                "lunar": "17.7436928118",
                "kilometers": "6823698.330538794",
                "miles": "4240049.5288875972"
            },
            "orbiting_body": "Earth"
        }
    ],
    "orbital_data": {
        "orbit_id": "7",
        "orbit_determination_date": "2017-04-06 08:35:31",
        "first_observation_date": "2015-02-17",
        "last_observation_date": "2015-02-27",
        "data_arc_in_days": 10,
        "observations_used": 23,
        "orbit_uncertainty": "9",
        "minimum_orbit_intersection": ".000989234",
        "jupiter_tisserand_invariant": "3.188",
        "epoch_osculation": "2457074.5",
        "eccentricity": ".8004131324609138",
        "semi_major_axis": "2.147167907801318",
        "inclination": "6.837014383269166",
        "ascending_node_longitude": "143.426746620158",
        "orbital_period": "1149.204817867639",
        "perihelion_distance": ".4285465167985184",
        "perihelion_argument": "254.6310250248051",
        "aphelion_distance": "3.865789298804117",
        "perihelion_time": "2457020.246057763384",
        "mean_anomaly": "16.99559460725418",
        "mean_motion": ".3132600859331443",
        "equinox": "J2000",
        "orbit_class": {
            "orbit_class_type": "APO",
            "orbit_class_description": "Near-Earth asteroid orbits which cross the Earth’s orbit similar to that of 1862 Apollo",
            "orbit_class_range": "a (semi-major axis) > 1.0 AU; q (perihelion) < 1.017 AU"
        }
    },
    "is_sentry_object": false
}